<?xml version="1.0" encoding="UTF-8"?>
<ndm xmlns:xsi="http://www.w3.org/2001/XMLSchema-instance" xsi:noNamespaceSchemaLocation="https://sanaregistry.org/r/ndmxml_unqualified/ndmxml-2.0.0-master-2.0.xsd">
<omm id="CCSDS_OMM_VERS" version="2.0">
<header><CREATION_DATE/><ORIGINATOR/></header><body><segment><metadata><OBJECT_NAME>ORBCOMM FM33</OBJECT_NAME><OBJECT_ID>1999-065D</OBJECT_ID><CENTER_NAME>EARTH</CENTER_NAME><REF_FRAME>TEME</REF_FRAME><TIME_SYSTEM>UTC</TIME_SYSTEM><MEAN_ELEMENT_THEORY>SGP4</MEAN_ELEMENT_THEORY></metadata><data><meanElements><EPOCH>2025-02-05T21:06:29.003040</EPOCH><MEAN_MOTION>14.39405754</MEAN_MOTION><ECCENTRICITY>.0008841</ECCENTRICITY><INCLINATION>45.0274</INCLINATION><RA_OF_ASC_NODE>263.0072</RA_OF_ASC_NODE><ARG_OF_PERICENTER>118.4355</ARG_OF_PERICENTER><MEAN_ANOMALY>241.7386</MEAN_ANOMALY></meanElements><tleParameters><EPHEMERIS_TYPE>0</EPHEMERIS_TYPE><CLASSIFICATION_TYPE>U</CLASSIFICATION_TYPE><NORAD_CAT_ID>25983</NORAD_CAT_ID><ELEMENT_SET_NO>999</ELEMENT_SET_NO><REV_AT_EPOCH>31714</REV_AT_EPOCH><BSTAR>.92936E-3</BSTAR><MEAN_MOTION_DOT>.2778E-4</MEAN_MOTION_DOT><MEAN_MOTION_DDOT>0</MEAN_MOTION_DDOT></tleParameters></data></segment></body></omm>
<omm id="CCSDS_OMM_VERS" version="2.0">
<header><CREATION_DATE/><ORIGINATOR/></header><body><segment><metadata><OBJECT_NAME>ORBCOMM FM36</OBJECT_NAME><OBJECT_ID>1999-065E</OBJECT_ID><CENTER_NAME>EARTH</CENTER_NAME><REF_FRAME>TEME</REF_FRAME><TIME_SYSTEM>UTC</TIME_SYSTEM><MEAN_ELEMENT_THEORY>SGP4</MEAN_ELEMENT_THEORY></metadata><data><meanElements><EPOCH>2025-02-05T21:06:33.050016</EPOCH><MEAN_MOTION>14.37516696</MEAN_MOTION><ECCENTRICITY>.0004764</ECCENTRICITY><INCLINATION>45.0404</INCLINATION><RA_OF_ASC_NODE>352.9109</RA_OF_ASC_NODE><ARG_OF_PERICENTER>348.4434</ARG_OF_PERICENTER><MEAN_ANOMALY>11.6304</MEAN_ANOMALY></meanElements><tleParameters><EPHEMERIS_TYPE>0</EPHEMERIS_TYPE><CLASSIFICATION_TYPE>U</CLASSIFICATION_TYPE><NORAD_CAT_ID>25984</NORAD_CAT_ID><ELEMENT_SET_NO>999</ELEMENT_SET_NO><REV_AT_EPOCH>31611</REV_AT_EPOCH><BSTAR>.10889E-2</BSTAR><MEAN_MOTION_DOT>.3151E-4</MEAN_MOTION_DOT><MEAN_MOTION_DDOT>0</MEAN_MOTION_DDOT></tleParameters></data></segment></body></omm>
<omm id="CCSDS_OMM_VERS" version="2.0">
<header><CREATION_DATE/><ORIGINATOR/></header><body><segment><metadata><OBJECT_NAME>ORBCOMM FM35</OBJECT_NAME><OBJECT_ID>1999-065F</OBJECT_ID><CENTER_NAME>EARTH</CENTER_NAME><REF_FRAME>TEME</REF_FRAME><TIME_SYSTEM>UTC</TIME_SYSTEM><MEAN_ELEMENT_THEORY>SGP4</MEAN_ELEMENT_THEORY></metadata><data><meanElements><EPOCH>2025-02-05T21:46:45.825312</EPOCH><MEAN_MOTION>14.36584944</MEAN_MOTION><ECCENTRICITY>.0002374</ECCENTRICITY><INCLINATION>45.0406</INCLINATION><RA_OF_ASC_NODE>356.8077</RA_OF_ASC_NODE><ARG_OF_PERICENTER>69.7573</ARG_OF_PERICENTER><MEAN_ANOMALY>290.3530</MEAN_ANOMALY></meanElements><tleParameters><EPHEMERIS_TYPE>0</EPHEMERIS_TYPE><CLASSIFICATION_TYPE>U</CLASSIFICATION_TYPE><NORAD_CAT_ID>25985</NORAD_CAT_ID><ELEMENT_SET_NO>999</ELEMENT_SET_NO><REV_AT_EPOCH>31609</REV_AT_EPOCH><BSTAR>.93879E-3</BSTAR><MEAN_MOTION_DOT>.2644E-4</MEAN_MOTION_DOT><MEAN_MOTION_DDOT>0</MEAN_MOTION_DDOT></tleParameters></data></segment></body></omm>
<omm id="CCSDS_OMM_VERS" version="2.0">
<header><CREATION_DATE/><ORIGINATOR/></header><body><segment><metadata><OBJECT_NAME>ORBCOMM FM34</OBJECT_NAME><OBJECT_ID>1999-065G</OBJECT_ID><CENTER_NAME>EARTH</CENTER_NAME><REF_FRAME>TEME</REF_FRAME><TIME_SYSTEM>UTC</TIME_SYSTEM><MEAN_ELEMENT_THEORY>SGP4</MEAN_ELEMENT_THEORY></metadata><data><meanElements><EPOCH>2025-02-05T14:22:11.954208</EPOCH><MEAN_MOTION>14.36627611</MEAN_MOTION><ECCENTRICITY>.0004245</ECCENTRICITY><INCLINATION>45.0402</INCLINATION><RA_OF_ASC_NODE>358.7796</RA_OF_ASC_NODE><ARG_OF_PERICENTER>17.7370</ARG_OF_PERICENTER><MEAN_ANOMALY>342.3626</MEAN_ANOMALY></meanElements><tleParameters><EPHEMERIS_TYPE>0</EPHEMERIS_TYPE><CLASSIFICATION_TYPE>U</CLASSIFICATION_TYPE><NORAD_CAT_ID>25986</NORAD_CAT_ID><ELEMENT_SET_NO>999</ELEMENT_SET_NO><REV_AT_EPOCH>31597</REV_AT_EPOCH><BSTAR>.85972E-3</BSTAR><MEAN_MOTION_DOT>.2411E-4</MEAN_MOTION_DOT><MEAN_MOTION_DDOT>0</MEAN_MOTION_DDOT></tleParameters></data></segment></body></omm>
<omm id="CCSDS_OMM_VERS" version="2.0">
<header><CREATION_DATE/><ORIGINATOR/></header><body><segment><metadata><OBJECT_NAME>ORBCOMM FM38</OBJECT_NAME><OBJECT_ID>2008-031A</OBJECT_ID><CENTER_NAME>EARTH</CENTER_NAME><REF_FRAME>TEME</REF_FRAME><TIME_SYSTEM>UTC</TIME_SYSTEM><MEAN_ELEMENT_THEORY>SGP4</MEAN_ELEMENT_THEORY></metadata><data><meanElements><EPOCH>2025-02-05T21:54:32.795712</EPOCH><MEAN_MOTION>14.80323650</MEAN_MOTION><ECCENTRICITY>.000613</ECCENTRICITY><INCLINATION>48.4386</INCLINATION><RA_OF_ASC_NODE>220.4496</RA_OF_ASC_NODE><ARG_OF_PERICENTER>197.0405</ARG_OF_PERICENTER><MEAN_ANOMALY>163.0305</MEAN_ANOMALY></meanElements><tleParameters><EPHEMERIS_TYPE>0</EPHEMERIS_TYPE><CLASSIFICATION_TYPE>U</CLASSIFICATION_TYPE><NORAD_CAT_ID>33060</NORAD_CAT_ID><ELEMENT_SET_NO>999</ELEMENT_SET_NO><REV_AT_EPOCH>89529</REV_AT_EPOCH><BSTAR>.57943E-3</BSTAR><MEAN_MOTION_DOT>.4255E-4</MEAN_MOTION_DOT><MEAN_MOTION_DDOT>0</MEAN_MOTION_DDOT></tleParameters></data></segment></body></omm>
<omm id="CCSDS_OMM_VERS" version="2.0">
<header><CREATION_DATE/><ORIGINATOR/></header><body><segment><metadata><OBJECT_NAME>ORBCOMM FM41</OBJECT_NAME><OBJECT_ID>2008-031B</OBJECT_ID><CENTER_NAME>EARTH</CENTER_NAME><REF_FRAME>TEME</REF_FRAME><TIME_SYSTEM>UTC</TIME_SYSTEM><MEAN_ELEMENT_THEORY>SGP4</MEAN_ELEMENT_THEORY></metadata><data><meanElements><EPOCH>2025-02-05T21:35:33.514080</EPOCH><MEAN_MOTION>14.79947383</MEAN_MOTION><ECCENTRICITY>.0005194</ECCENTRICITY><INCLINATION>48.4419</INCLINATION><RA_OF_ASC_NODE>227.8573</RA_OF_ASC_NODE><ARG_OF_PERICENTER>183.7596</ARG_OF_PERICENTER><MEAN_ANOMALY>276.4993</MEAN_ANOMALY></meanElements><tleParameters><EPHEMERIS_TYPE>0</EPHEMERIS_TYPE><CLASSIFICATION_TYPE>U</CLASSIFICATION_TYPE><NORAD_CAT_ID>33061</NORAD_CAT_ID><ELEMENT_SET_NO>999</ELEMENT_SET_NO><REV_AT_EPOCH>89522</REV_AT_EPOCH><BSTAR>.57726E-3</BSTAR><MEAN_MOTION_DOT>.4199E-4</MEAN_MOTION_DOT><MEAN_MOTION_DDOT>0</MEAN_MOTION_DDOT></tleParameters></data></segment></body></omm>
<omm id="CCSDS_OMM_VERS" version="2.0">
<header><CREATION_DATE/><ORIGINATOR/></header><body><segment><metadata><OBJECT_NAME>ORBCOMM FM29</OBJECT_NAME><OBJECT_ID>2008-031C</OBJECT_ID><CENTER_NAME>EARTH</CENTER_NAME><REF_FRAME>TEME</REF_FRAME><TIME_SYSTEM>UTC</TIME_SYSTEM><MEAN_ELEMENT_THEORY>SGP4</MEAN_ELEMENT_THEORY></metadata><data><meanElements><EPOCH>2025-02-05T16:15:01.059840</EPOCH><MEAN_MOTION>14.79993484</MEAN_MOTION><ECCENTRICITY>.0006938</ECCENTRICITY><INCLINATION>48.4372</INCLINATION><RA_OF_ASC_NODE>236.8624</RA_OF_ASC_NODE><ARG_OF_PERICENTER>179.9733</ARG_OF_PERICENTER><MEAN_ANOMALY>219.9225</MEAN_ANOMALY></meanElements><tleParameters><EPHEMERIS_TYPE>0</EPHEMERIS_TYPE><CLASSIFICATION_TYPE>U</CLASSIFICATION_TYPE><NORAD_CAT_ID>33062</NORAD_CAT_ID><ELEMENT_SET_NO>999</ELEMENT_SET_NO><REV_AT_EPOCH>89466</REV_AT_EPOCH><BSTAR>.55286E-3</BSTAR><MEAN_MOTION_DOT>.4018E-4</MEAN_MOTION_DOT><MEAN_MOTION_DDOT>0</MEAN_MOTION_DDOT></tleParameters></data></segment></body></omm>
<omm id="CCSDS_OMM_VERS" version="2.0">
<header><CREATION_DATE/><ORIGINATOR/></header><body><segment><metadata><OBJECT_NAME>ORBCOMM FM39</OBJECT_NAME><OBJECT_ID>2008-031D</OBJECT_ID><CENTER_NAME>EARTH</CENTER_NAME><REF_FRAME>TEME</REF_FRAME><TIME_SYSTEM>UTC</TIME_SYSTEM><MEAN_ELEMENT_THEORY>SGP4</MEAN_ELEMENT_THEORY></metadata><data><meanElements><EPOCH>2025-02-05T21:56:20.018112</EPOCH><MEAN_MOTION>14.78676285</MEAN_MOTION><ECCENTRICITY>.0007532</ECCENTRICITY><INCLINATION>48.4389</INCLINATION><RA_OF_ASC_NODE>258.6205</RA_OF_ASC_NODE><ARG_OF_PERICENTER>154.6994</ARG_OF_PERICENTER><MEAN_ANOMALY>205.4290</MEAN_ANOMALY></meanElements><tleParameters><EPHEMERIS_TYPE>0</EPHEMERIS_TYPE><CLASSIFICATION_TYPE>U</CLASSIFICATION_TYPE><NORAD_CAT_ID>33063</NORAD_CAT_ID><ELEMENT_SET_NO>999</ELEMENT_SET_NO><REV_AT_EPOCH>89478</REV_AT_EPOCH><BSTAR>.49062E-3</BSTAR><MEAN_MOTION_DOT>.3428E-4</MEAN_MOTION_DOT><MEAN_MOTION_DDOT>0</MEAN_MOTION_DDOT></tleParameters></data></segment></body></omm>

</ndm>
