ORBCOMM FM33            
1 25983U 99065D   25036.87950235  .00002778  00000+0  92936-3 0  9996
2 25983  45.0274 263.0072 0008841 118.4355 241.7386 14.39405754317148
ORBCOMM FM36            
1 25984U 99065E   25036.87954919  .00003151  00000+0  10889-2 0  9992
2 25984  45.0404 352.9109 0004764 348.4434  11.6304 14.37516696315526
ORBCOMM FM35            
1 25985U 99065F   25036.90747483  .00002644  00000+0  93879-3 0  9990
2 25985  45.0406 356.8077 0002374  69.7573 290.3530 14.36584944315907
ORBCOMM FM34            
1 25986U 99065G   25036.59874947  .00002411  00000+0  85972-3 0  9999
2 25986  45.0402 358.7796 0004245  17.7370 342.3626 14.36627611315970
ORBCOMM FM38            
1 33060U 08031A   25036.91287958  .00004255  00000+0  57943-3 0  9995
2 33060  48.4386 220.4496 0006130 197.0405 163.0305 14.80323650895293
ORBCOMM FM41            
1 33061U 08031B   25036.89969345  .00004199  00000+0  57726-3 0  9996
2 33061  48.4419 227.8573 0005194 183.7596 276.4993 14.79947383894788
ORBCOMM FM29            
1 33062U 08031C   25036.67709560  .00004018  00000+0  55286-3 0  9993
2 33062  48.4372 236.8624 0006938 179.9733 219.9225 14.79993484894661
ORBCOMM FM39            
1 33063U 08031D   25036.91412058  .00003428  00000+0  49062-3 0  9993
2 33063  48.4389 258.6205 0007532 154.6994 205.4290 14.78676285894788
